BEIDOU-2 IGSO-1         
1 36828U 10036A   26132.68902604 -.00000041  00000+0  00000+0 0  9990
2 36828  54.2951 163.2807 0058855 224.5644 197.8413  1.00282752 57743
BEIDOU-2 G4             
1 37210U 10057A   26135.20618178 -.00000099  00000+0  00000+0 0  9993
2 37210   3.5646  69.1298 0005637 209.3825 188.6387  1.00272234 56962
BEIDOU-2 IGSO-2         
1 37256U 10068A   26134.81364228 -.00000229  00000+0  00000+0 0  9990
2 37256  47.6127 272.2469 0054293 211.9004 147.4993  1.00294530 56455
BEIDOU-2 IGSO-3         
1 37384U 11013A   26134.75077336 -.00000206  00000+0  00000+0 0  9992
2 37384  62.3634  40.4703 0033942 185.9417  24.6219  1.00276202 55324
BEIDOU-2 IGSO-4         
1 37763U 11038A   26134.55136171  .00000083  00000+0  00000+0 0  9993
2 37763  54.5875 165.9688 0158111 233.6626 122.7564  1.00290878 54304
BEIDOU-2 IGSO-5         
1 37948U 11073A   26134.85233405 -.00000174  00000+0  00000+0 0  9990
2 37948  47.7421 271.9571 0111838 220.5962 139.4077  1.00256060 52804
BEIDOU-2 G5             
1 38091U 12008A   26135.04347544  .00000071  00000+0  00000+0 0  9996
2 38091   3.4907  69.8856 0010982 271.0078 326.2073  1.00271873 52035
BEIDOU-2 M3             
1 38250U 12018A   26133.82337998 -.00000044  00000+0  00000+0 0  9991
2 38250  55.7884 306.0335 0019740 276.7159  83.0491  1.86230034 95304
BEIDOU-2 M4             
1 38251U 12018B   26134.29258150 -.00000046  00000+0  00000+0 0  9998
2 38251  55.6884 305.2340 0010931 281.8081  78.0562  1.86229693 95318
BEIDOU-2 M6             
1 38775U 12050B   26134.00242703 -.00000037  00000+0  00000+0 0  9991
2 38775  56.5158  64.0245 0014342 351.6260   8.3313  1.86230833 92676
BEIDOU-2 G6             
1 38953U 12059A   26134.83461641 -.00000162  00000+0  00000+0 0  9992
2 38953   4.3366  73.8698 0010420 320.6012 222.6397  1.00271635 49575
BEIDOU-3S IGSO-1S       
1 40549U 15019A   26134.91969272 -.00000182  00000+0  00000+0 0  9999
2 40549  49.2600 295.8616 0037811 190.1402 171.7341  1.00257375 40748
BEIDOU-3S M2S           
1 40748U 15037A   26133.42160253 -.00000044  00000+0  00000+0 0  9994
2 40748  54.9026 303.2431 0007483 267.3673  92.5347  1.86232251 73474
BEIDOU-3S M1S           
1 40749U 15037B   26134.70702215 -.00000049  00000+0  00000+0 0  9992
2 40749  54.8981 303.1861 0004118  56.2797 303.7422  1.86254777 73506
BEIDOU-3S IGSO-2S       
1 40938U 15053A   26134.81413883 -.00000171  00000+0  00000+0 0  9998
2 40938  49.2758 259.1800 0064443 190.7694 172.1939  1.00267485 39022
BEIDOU-2 IGSO-6         
1 41434U 16021A   26133.71344662 -.00000171  00000+0  00000+0 0  9992
2 41434  60.1795  38.3842 0057349 232.4091 312.1070  1.00265272 37136
BEIDOU-2 G7             
1 41586U 16037A   26135.26765273 -.00000340  00000+0  00000+0 0  9992
2 41586   1.6381  69.0108 0007473 359.1347  11.7715  1.00268586  6567
BEIDOU-3 M1             
1 43001U 17069A   26133.76780652 -.00000035  00000+0  00000+0 0  9994
2 43001  56.6631  64.2188 0011641 320.5367  39.3602  1.86231382 57969
BEIDOU-3 M2             
1 43002U 17069B   26133.16952611 -.00000032  00000+0  00000+0 0  9992
2 43002  56.6620  64.2738 0009693 344.6836  15.2699  1.86229936 57940
BEIDOU-3 M7             
1 43107U 18003A   26134.52202215 -.00000050  00000+0  00000+0 0  9996
2 43107  54.3594 303.4891 0005239  85.7155 274.3282  1.86228234 56729
BEIDOU-3 M8             
1 43108U 18003B   26132.85647029 -.00000043  00000+0  00000+0 0  9999
2 43108  54.3540 303.5291 0002179 277.0252  82.9401  1.86231209 56700
BEIDOU-3 M4             
1 43207U 18018A   26133.83609041 -.00000035  00000+0  00000+0 0  9997
2 43207  56.6222  64.2817 0007810   8.4475 351.5469  1.86231296 56106
BEIDOU-3 M3             
1 43208U 18018B   26133.90253905 -.00000036  00000+0  00000+0 0  9991
2 43208  56.6215  64.2834 0009595 332.7979  27.1331  1.86231253 56109
BEIDOU-3 M9             
1 43245U 18029A   26133.04629420 -.00000044  00000+0  00000+0 0  9997
2 43245  54.2274 301.1779 0000806 101.6627 258.3330  1.86228295 55242
BEIDOU-3 M10            
1 43246U 18029B   26132.98083424 -.00000043  00000+0  00000+0 0  9997
2 43246  54.2250 301.2067 0004582  37.0226 322.9958  1.86229383 55221
BEIDOU-2 IGSO-7         
1 43539U 18057A   26134.48418476  .00000023  00000+0  00000+0 0  9996
2 43539  55.1885 163.3530 0103946 237.7951 117.4564  1.00261150 28785
BEIDOU-3 M5             
1 43581U 18062A   26134.81592912  .00000098  00000+0  00000+0 0  9996
2 43581  54.0834 183.4391 0004978 287.7441  72.2956  1.86228609 53019
BEIDOU-3 M6             
1 43582U 18062B   26135.21619709  .00000098  00000+0  00000+0 0  9996
2 43582  54.0834 183.4147 0004769  15.7286 344.3811  1.86227511 53028
BEIDOU-3 M12            
1 43602U 18067A   26135.15459098  .00000100  00000+0  00000+0 0  9994
2 43602  54.1786 182.1608 0007846  32.5009 327.6421  1.86227940 52504
BEIDOU-3 M11            
1 43603U 18067B   26134.75259480  .00000100  00000+0  00000+0 0  9993
2 43603  54.1758 182.1382 0004429  17.6934 342.4159  1.86227418 52523
BEIDOU-3 M13            
1 43622U 18072A   26133.63367348 -.00000035  00000+0  00000+0 0  9997
2 43622  56.5956  63.8000 0008352 321.7173  38.2058  1.86231484 52015
